[{"OBJECT_NAME":"SWARM B","OBJECT_ID":"2013-067A","EPOCH":"2026-03-09T22:20:48.706656","MEAN_MOTION":15.27862638,"ECCENTRICITY":0.00036996,"INCLINATION":87.749,"RA_OF_ASC_NODE":12.4162,"ARG_OF_PERICENTER":86.3179,"MEAN_ANOMALY":273.8493,"EPHEMERIS_TYPE":0,"CLASSIFICATION_TYPE":"U","NORAD_CAT_ID":39451,"ELEMENT_SET_NO":999,"REV_AT_EPOCH":66808,"BSTAR":0.00020534236,"MEAN_MOTION_DOT":5.616e-5,"MEAN_MOTION_DDOT":0},{"OBJECT_NAME":"STARLINK-32555","OBJECT_ID":"2024-207G","EPOCH":"2026-03-09T00:18:03.191616","MEAN_MOTION":15.27595258,"ECCENTRICITY":0.00019544,"INCLINATION":43.0013,"RA_OF_ASC_NODE":289.4467,"ARG_OF_PERICENTER":265.2746,"MEAN_ANOMALY":94.7882,"EPHEMERIS_TYPE":0,"CLASSIFICATION_TYPE":"U","NORAD_CAT_ID":61918,"ELEMENT_SET_NO":999,"REV_AT_EPOCH":7457,"BSTAR":0.0008758077,"MEAN_MOTION_DOT":0.00023928,"MEAN_MOTION_DDOT":0}]
